{"fetched_at":"2026-03-29T16:36:15Z","count":15609,"tles":[{"name":"STARLINK-5297","line1":"1 54158U 22141B   26087.82173987  .00000797  00000+0  68144-4 0  9990","line2":"2 54158  53.2165 288.3672 0001371  87.7439 272.3710 15.08842715188609","category":"Starlink"}]}