{
  "norad_id": 54158,
  "name": "STARLINK-5297",
  "history": [
    {
      "epoch": "2026-03-28T19:43:18.324768",
      "apogee_km": 540.6840148223273,
      "perigee_km": 538.7861657930725,
      "latitude_deg": 52.12184014886497,
      "longitude_deg": 34.68702752003446,
      "semi_major_axis_km": 6917.8720903077,
      "eccentricity": 0.00013717,
      "inclination_deg": 53.2165,
      "raan_deg": 288.3672,
      "arg_perigee_deg": 87.7439,
      "mean_anomaly_deg": 272.371,
      "mean_motion_rev_day": 15.08842715
    }
  ]
}